GSAT0101 (GALILEO-PFM)  
1 37846U 11060A   24283.52073027 -.00000078  00000+0  00000+0 0  9995
2 37846  57.1241 358.4447 0000411 311.7581  48.2934  1.70475797 80620
GSAT0102 (GALILEO-FM2)  
1 37847U 11060B   24284.03983277 -.00000077  00000+0  00000+0 0  9999
2 37847  57.1246 358.4308 0002457 298.7368  65.3721  1.70475338 80648
GSAT0103 (GALILEO-FM3)  
1 38857U 12055A   24284.14677131  .00000063  00000+0  00000+0 0  9991
2 38857  55.4579 118.4445 0002007 265.6456  94.4048  1.70473652 74665
GSAT0201 (GALILEO 5)    
1 40128U 14050A   24283.89254242 -.00000010  00000+0  00000+0 0  9990
2 40128  49.5419 298.4460 1614007 155.7361 212.8190  1.85519498 66903
GSAT0202 (GALILEO 6)    
1 40129U 14050B   24285.22838668 -.00000006  00000+0  00000+0 0  9995
2 40129  49.5569 297.4706 1613228 156.5821 211.6952  1.85520215 69091
GSAT0203 (GALILEO 7)    
1 40544U 15017A   24285.05943437 -.00000078  00000+0  00000+0 0  9991
2 40544  56.9187 358.3212 0005015 246.4053 113.5959  1.70476218 58736
GSAT0204 (GALILEO 8)    
1 40545U 15017B   24282.96761633 -.00000078  00000+0  00000+0 0  9995
2 40545  56.9252 358.3942 0004824 233.0544 126.9567  1.70475838 21745
GSAT0205 (GALILEO 9)    
1 40889U 15045A   24285.08209068  .00000021  00000+0  00000+0 0  9999
2 40889  55.1701 238.5683 0004117  17.1646 342.8316  1.70472961 56547
GSAT0206 (GALILEO 10)   
1 40890U 15045B   24284.71615146  .00000023  00000+0  00000+0 0  9990
2 40890  55.1699 238.5737 0002436 354.8910   5.0895  1.70472990 56566
GSAT0209 (GALILEO 12)   
1 41174U 15079A   24283.12622964  .00000061  00000+0  00000+0 0  9995
2 41174  55.4760 118.1828 0002358 356.2784   3.7922  1.70474184 54275
GSAT0208 (GALILEO 11)   
1 41175U 15079B   24283.93265164  .00000063  00000+0  00000+0 0  9992
2 41175  55.4753 118.1583 0001898   9.9866 350.0898  1.70474023 54707
GSAT0211 (GALILEO 14)   
1 41549U 16030A   24282.88209769  .00000026  00000+0  00000+0 0  9996
2 41549  55.3191 238.6476 0003495 329.7934  30.1680  1.70473152 52165
GSAT0210 (GALILEO 13)   
1 41550U 16030B   24284.89996052  .00000022  00000+0  00000+0 0  9995
2 41550  55.3181 238.5906 0003189 247.0068 112.9423  1.70473450 52179
GSAT0207 (GALILEO 15)   
1 41859U 16069A   24285.17953902  .00000066  00000+0  00000+0 0  9996
2 41859  55.1429 118.0995 0001914 326.7202  33.3428  1.70474078 48930
GSAT0212 (GALILEO 16)   
1 41860U 16069B   24283.27395781  .00000060  00000+0  00000+0 0  9996
2 41860  55.1394 118.1485 0002278  32.5282 327.5581  1.70474293 49154
GSAT0213 (GALILEO 17)   
1 41861U 16069C   24284.81550123  .00000065  00000+0  00000+0 0  9996
2 41861  55.1426 118.1127 0001706 278.0645  81.9903  1.70474608 49046
GSAT0214 (GALILEO 18)   
1 41862U 16069D   24283.20110827  .00000060  00000+0  00000+0 0  9997
2 41862  55.1406 118.1510 0000806 288.7499  71.3136  1.70474346 49147
GSAT0215 (GALILEO 19)   
1 43055U 17079A   24284.27699853  .00000025  00000+0  00000+0 0  9995
2 43055  55.2953 238.4297 0002785 279.3319  80.6202  1.70473795 42501
GSAT0216 (GALILEO 20)   
1 43056U 17079B   24285.15519365  .00000021  00000+0  00000+0 0  9999
2 43056  55.2950 238.4054 0004241 284.6571  75.2780  1.70473883 42530
GSAT0217 (GALILEO 21)   
1 43057U 17079C   24283.61595701  .00000026  00000+0  00000+0 0  9992
2 43057  55.2939 238.4463 0003772 299.0256  60.9198  1.70473876 42491
GSAT0218 (GALILEO 22)   
1 43058U 17079D   24283.83601456  .00000026  00000+0  00000+0 0  9992
2 43058  55.2942 238.4378 0004705 280.1241  79.8063  1.70473874 42525
GSAT0221 (GALILEO 25)   
1 43564U 18060A   24284.32382834 -.00000077  00000+0  00000+0 0  9993
2 43564  57.2990 358.3708 0005037 263.6067  96.3906  1.70476023 38694
GSAT0222 (GALILEO 26)   
1 43565U 18060B   24281.02300652 -.00000082  00000+0  00000+0 0  9992
2 43565  57.3029 358.4618 0004866 235.6004 124.4093  1.70475939 38672
GSAT0219 (GALILEO 23)   
1 43566U 18060C   24283.59105417 -.00000077  00000+0  00000+0 0  9993
2 43566  57.3018 358.3944 0004057 266.7820  93.2267  1.70476072 38692
GSAT0220 (GALILEO 24)   
1 43567U 18060D   24282.05200459 -.00000079  00000+0  00000+0 0  9998
2 43567  57.3017 358.4368 0004008 261.8115  98.1990  1.70476155 38657
GSAT0223 (GALILEO 27)   
1 49809U 21116A   24284.84043319 -.00000077  00000+0  00000+0 0  9996
2 49809  57.2919 358.2552 0003988 213.9678 147.8719  1.70476130 17700
GSAT0224 (GALILEO 28)   
1 49810U 21116B   24285.24052964 -.00000077  00000+0  00000+0 0  9999
2 49810  57.2927 358.2429 0003259 211.3978 148.5123  1.70476159 17731
GSAT0225 (GALILEO 29)   
1 59598U 24079A   24284.37686697  .00000062  00000+0  00000+0 0  9996
2 59598  54.7575 118.2853 0002519 160.4965  20.2129  1.70474410  2834
GSAT0227 (GALILEO 30)   
1 59600U 24079C   24284.26586624  .00000062  00000+0  00000+0 0  9997
2 59600  54.7537 118.2883 0003683 110.4857 249.6271  1.70474400  2886
GSAT0232 (GALILEO 32)   
1 61182U 24167A   24284.26144262  .00000024  00000+0  00000+0 0  9999
2 61182  55.4060 238.1862 0016996 273.4839  86.3061  1.73176966   388
GSAT0226 (GALILEO 31)   
1 61183U 24167B   24285.02985371  .00000022  00000+0  00000+0 0  9997
2 61183  55.4027 238.1752 0032734  98.0977 262.2569  1.71381556   381
